id,address_type,street,street_additional,city,region,country,postal_code,delivery_instructions,business_id,transaction_id,end_transaction_id,operation_type,office_id
24240,mailing,4310 Dieppe Rd,"",Victoria,BC,CA,V8X 2N3,"",,109409,110113,0,3126
24241,delivery,4310 Dieppe Rd,"",Victoria,BC,CA,V8X 2N3,"",,109409,110113,0,3126
24242,mailing,4310 Dieppe Rd,"",Victoria,BC,CA,V8X 2N3,"",,109409,110113,0,3127
24243,delivery,4310 Dieppe Rd,"",Victoria,BC,CA,V8X 2N3,"",,109409,110113,0,3127
24240,mailing,4311 Dieppe Rd,"",Victoria,BC,CA,V8X 2N3,"",,110113,110228,1,3126
24241,delivery,4311 Dieppe Rd,"",Victoria,BC,CA,V8X 2N3,"",,110113,110228,1,3126
24242,mailing,4311 Dieppe Rd,"",Victoria,BC,CA,V8X 2N3,"",,110113,110228,1,3127
24243,delivery,4311 Dieppe Rd,"",Victoria,BC,CA,V8X 2N3,"",,110113,110228,1,3127
24240,mailing,4312 Dieppe Rd,"",Victoria,BC,CA,V8X 2N3,"",,110228,110352,1,3126
24241,delivery,4312 Dieppe Rd,"",Victoria,BC,CA,V8X 2N3,"",,110228,110352,1,3126
24242,mailing,4312 Dieppe Rd,"",Victoria,BC,CA,V8X 2N3,"",,110228,110352,1,3127
24243,delivery,4312 Dieppe Rd,"",Victoria,BC,CA,V8X 2N3,"",,110228,110352,1,3127
24240,mailing,4313 Dieppe Rd,"",Victoria,BC,CA,V8X 2N3,"",,110352,110641,1,3126
24241,delivery,4313 Dieppe Rd,"",Victoria,BC,CA,V8X 2N3,"",,110352,110641,1,3126
24240,mailing,4314 Dieppe Rd,"",Victoria,BC,CA,V8X 2N3,"",,110641,111214,1,3126
24241,delivery,4314 Dieppe Rd,"",Victoria,BC,CA,V8X 2N3,"",,110641,111214,1,3126
24242,mailing,4313 Dieppe Rd,"",Victoria,BC,CA,V8X 2N3,"",,110352,110641,1,3127
24243,delivery,4313 Dieppe Rd,"",Victoria,BC,CA,V8X 2N3,"",,110352,110641,1,3127
24240,mailing,4314 Douglas Rd,"",Victoria,BC,CA,V8X 2N3,"",,111214,,1,3126
24241,delivery,4314 Douglas Rd,"",Victoria,BC,CA,V8X 2N3,"",,111214,,1,3126
24242,mailing,4314 Douglas Rd,"",Victoria,BC,CA,V8X 2N3,"",,111214,,1,3127
24242,mailing,4314 Dieppe Rd,"",Victoria,BC,CA,V8X 2N3,"",,110641,111214,1,3127
24243,delivery,4314 Douglas Rd,"",Victoria,BC,CA,V8X 2N3,"",,111214,,1,3127
24243,delivery,4314 Dieppe Rd,"",Victoria,BC,CA,V8X 2N3,"",,110641,111214,1,3127
